STARLINK-3127_new
1 19450C 21104AU  21326.07836713 -.00870947  00000-0 -31593-2 0  3263
2 19450  53.2178  91.1583 0026069  65.3025 208.5147 15.88095339    10
STARLINK-3127_old
1 29450C 21104AU  21325.18942881 -.00816075  00000-0 -26883-2 0  3255
2 29450  53.2175  95.6599 0032971  63.6545 162.5749 15.89586924    13
